IRIDIUM 150             
1 43257U 18030J   25281.77217027 -.00000007  00000+0 -96776-5 0  9992
2 43257  86.4000  35.5504 0001981  89.6371 270.5052 14.34218628394125
IRIDIUM 143             
1 43258U 18030K   25281.40429924  .00000380  00000+0  12861-3 0  9997
2 43258  86.3999  35.7864 0002028  83.2842 276.8585 14.34218815394004
IRIDIUM 161             
1 43478U 18047C   25281.77538891  .00000563  00000+0  16141-3 0  9991
2 43478  86.4560 193.4906 0002327  85.5342 274.6124 14.43277398388878
IRIDIUM 152             
1 43479U 18047D   25281.30724829  .00000431  00000+0  14678-3 0  9996
2 43479  86.4034 193.5466 0002305  85.8118 274.3341 14.34219684386383
IRIDIUM 147             
1 43480U 18047E   25281.31358819  .00000241  00000+0  78913-4 0  9993
2 43480  86.4038 193.5448 0002121  85.5329 274.6109 14.34219364386386
IRIDIUM 110             
1 43481U 18047F   25281.73854540  .00000296  00000+0  98636-4 0  9996
2 43481  86.4039 193.4526 0002360  94.7837 265.3628 14.34219059386435
IRIDIUM 162             
1 43482U 18047G   25281.28376759  .00000578  00000+0  16596-3 0  9995
2 43482  86.4557 193.5898 0002513  85.3742 274.7746 14.43278506388793
IRIDIUM 160             
1 43569U 18061A   25281.96345760  .00000298  00000+0  99486-4 0  9999
2 43569  86.4023 161.8047 0002096  90.5949 269.5487 14.34217667377360
